{"fetched_at":"2026-03-30T13:17:50Z","count":15418,"tles":[{"name":"STARLINK-35600","line1":"1 66510U 25263AB  26087.83954062  .00031365  00000+0  11427-2 0  9990","line2":"2 66510  43.0004 242.8903 0001574 273.5546  86.5125 15.27629520 21827","category":"Starlink"}]}